C/2016 N6 (PANSTARRS),e,105.8585,298.9202,162.5886,982.9094,0.0000320,0.99729378,0.0000,07/17.4997/2018,2000,g  7.0,4.0
# From MPC102099
P/2016 P1 (PANSTARRS),e,24.4187,319.5328,270.4763,3.199401,0.1722269,0.28937230,95.1889,12/16.0/2022,2000,g 15.0,4.0
# From MPEC 2022-M21
C/2016 Q2 (PANSTARRS),h,05/12.3558/2021,109.3830,322.3084,84.5561,1.002837,7.081940,2000,6.0,4.0
# From MPC102955
C/2016 Q4 (Kowalski),e,7.2466,271.2956,99.6692,17.01930,0.0140376,0.58303541,24.9800,12/16.0/2022,2000,g  7.0,4.0
# From MPEC 2021-N06
C/2016 R2 (PANSTARRS),e,58.3243,80.5156,33.0948,476.5682,0.0000947,0.99455136,0.0000,05/09.1875/2018,2000,g  7.0,4.0
# From MPEC 2022-K19
P/2016 R4 (Gibbs),e,10.8775,168.2616,174.1277,5.332601,0.0800379,0.47622888,186.9546,12/16.0/2022,2000,g 12.5,4.0
# From MPC105543
P/2016 S1 (PANSTARRS),e,94.7288,227.6486,273.2569,8.276002,0.0413974,0.71033668,86.9487,12/16.0/2022,2000,g 12.0,4.0
# From MPC106345
P/2016 WM48 (Lemmon),e,117.5787,59.9329,36.1393,8.169049,0.0422131,0.78348528,89.5602,12/16.0/2022,2000,g 15.0,4.0
# From MPEC 2021-P47
C/2016 X1 (Lemmon),e,26.4583,256.3445,224.4775,1348,0.0000199,0.99439318,0.0000,04/27.8516/2019,2000,g  6.0,4.0
# From MPC114598
C/2017 AB5 (PANSTARRS),e,32.4654,42.5964,78.2815,2650,0.0000072,0.99652618,0.0000,02/14.5403/2018,2000,g  5.5,4.0
# From MPEC 2022-OB6
C/2017 B3 (LINEAR),h,02/01.5064/2019,54.1587,2.1750,284.8313,1.000329,3.929241,2000,6.0,4.0
# From MPC103847
P/2017 B4 (PANSTARRS),e,20.0584,121.4578,11.0197,4.410520,0.1064068,0.36495152,359.9130,01/05.0/2017,2000,g 14.5,4.0
# From MPEC 2022-OB6
P/2017 D1 (Fuls),e,20.7666,82.1888,7.9528,4.827890,0.0929112,0.43692391,219.9201,12/16.0/2022,2000,g 14.0,4.0
# From MPEC 2022-OB6
P/2017 D4 (PANSTARRS),e,10.5484,264.9439,212.1342,7.548903,0.0475202,0.62893967,108.9568,12/16.0/2022,2000,g 13.0,4.0
# From MPC111769
C/2017 F1 (Lemmon),h,11/27.8035/2017,146.4694,158.7864,64.7227,1.001314,4.500752,2000,10.5,4.0
# From MPC114598
C/2017 F2 (PANSTARRS),h,11/25.4683/2017,42.5598,38.7099,134.8729,1.001693,6.922540,2000,7.5,4.0
# From MPC104794
P/2017 G1 (PANSTARRS),e,4.7836,249.6736,224.3580,7.275694,0.0502218,0.65369137,121.7223,12/16.0/2022,2000,g 13.5,4.0
# From MPC108595
P/2017 G2 (PANSTARRS),e,47.9602,79.8398,105.4137,8.051534,0.0431406,0.64753765,86.9628,12/16.0/2022,2000,g 13.0,4.0
# From MPC115882
C/2017 K1 (PANSTARRS),h,03/17.7895/2018,154.0219,225.7344,4.4129,1.003388,7.282452,2000,7.0,4.0
# From MPEC 2022-X67
C/2017 K2 (PANSTARRS),h,12/19.6867/2022,87.5632,88.2355,236.2002,1.000814,1.796886,2000,1.5,4.0
# From MPEC 2021-N06
P/2017 K3 (Gasparovic),e,4.2733,354.2946,253.4223,5.584883,0.0746763,0.57914335,151.4345,12/16.0/2022,2000,g 14.5,4.0
# From MPC114598
C/2017 K4 (ATLAS),e,16.6597,298.9218,15.3542,28.70330,0.0064092,0.90723778,11.5554,12/16.0/2022,2000,g 10.0,4.0
# From MPEC 2021-P47
C/2017 K5 (PANSTARRS),h,03/27.3881/2020,82.2527,102.3875,172.0699,1.005193,7.684199,2000,5.0,4.0
# From MPC114599
C/2017 K6 (Jacques),e,57.2179,84.8805,303.8279,1262,0.0000220,0.99841902,0.0000,01/04.0806/2018,2000,g 11.0,4.0
# From MPEC 2022-OB6
C/2017 M4 (ATLAS),h,01/17.9775/2019,105.6392,65.9672,167.6069,1.001252,3.251791,2000,6.0,4.0
# From MPC118841
C/2017 M5 (TOTAS),h,06/04.1744/2018,15.8617,216.2888,92.8707,1.005049,6.005512,2000,6.5,4.0
# From MPC114599
P/2017 P1 (PANSTARRS),e,7.6894,221.3641,122.7218,7.913229,0.0442765,0.31085693,72.4890,12/16.0/2022,2000,g 10.0,4.0
# From MPC114599
C/2017 P2 (PANSTARRS),e,50.0491,165.4654,132.5276,2538,0.0000077,0.99902366,0.0000,12/05.7040/2017,2000,g 10.0,4.0
# From MPC114599
C/2017 S3 (PANSTARRS),h,08/16.7122/2018,99.1999,171.2970,255.8079,1.000092,0.204995,2000,12.9,4.0
# From MPC109591
C/2017 S6 (Catalina),h,02/26.2239/2018,152.8638,131.1333,135.0395,1.000987,1.552078,2000,12.5,4.0
# From MPEC 2022-OB6
P/2017 S8 (PANSTARRS),e,29.8486,191.5190,254.8544,2.777936,0.2128731,0.39078041,19.5417,12/16.0/2022,2000,g 16.0,4.0
# From MPC107050
P/2017 S9 (PANSTARRS),e,14.1401,146.2214,237.5486,3.156970,0.1757107,0.30581770,347.1472,12/16.0/2022,2000,g 17.0,4.0
# From MPC114600
C/2017 T1 (Heinze),e,96.9190,102.5845,97.0381,10635,0.0000009,0.99994489,0.0000,02/20.6102/2018,2000,g 14.5,4.0
# From MPEC 2021-Y10
C/2017 T2 (PANSTARRS),e,57.2610,64.4096,92.9301,1603,0.0000154,0.99899304,0.0000,05/04.8050/2020,2000,g  5.0,4.0
# From MPC114600
C/2017 T3 (ATLAS),e,88.2488,230.2233,246.8011,1234,0.0000227,0.99933290,0.0000,07/19.1841/2018,2000,g 10.0,4.0
# From MPC115882
P/2017 TW13 (Lemmon),e,44.8499,322.2610,119.9120,7.135674,0.0517073,0.71023468,84.7084,12/16.0/2022,2000,g 15.0,2.0
# From MPEC 2022-K19
P/2017 U3 (PANSTARRS),e,15.9184,165.1084,296.2883,4.925017,0.0901763,0.09959167,121.1890,12/16.0/2022,2000,g 11.0,4.0
# From MPEC 2021-P47
C/2017 U4 (PANSTARRS),e,158.2026,245.9115,158.9749,17115,0.0000004,0.99954872,0.0000,09/21.6928/2018,2000,g  7.0,4.0
# From MPC114600
C/2017 U5 (PANSTARRS),e,18.9769,163.0846,262.0038,16.91250,0.0141707,0.74485736,25.8230,12/16.0/2022,2000,g 12.0,4.0
# From MPEC 2022-PB4
C/2017 U7 (PANSTARRS),h,09/15.2008/2019,142.6115,276.2648,326.4196,1.001537,6.427954,2000,8.3,2.0
# From MPC114601
P/2017 W3 (Gibbs),e,18.1678,210.2136,327.8199,7.832074,0.0449665,0.50634215,78.8359,12/16.0/2022,2000,g 10.5,4.0
# From MPEC 2021-R75
C/2017 X1 (PANSTARRS),e,31.3348,251.1543,283.1459,31.02214,0.0057042,0.84964154,9.3893,12/16.0/2022,2000,g 10.0,4.0
# From MPEC 2022-QD9
C/2017 Y2 (PANSTARRS),h,11/05.0834/2020,128.4346,66.0094,147.9355,1.001390,4.632811,2000,15.0,4.0
# From MPC111770
P/2017 Y3 (Leonard),e,27.5633,153.8548,67.5839,9.822823,0.0320147,0.86947162,56.7093,12/16.0/2022,2000,g 16.5,4.0
# From MPEC 2021-P47
C/2018 A3 (ATLAS),e,139.5370,194.2929,86.3504,370.3284,0.0001383,0.99114780,0.0000,01/11.0125/2019,2000,g  8.5,4.0
# From MPC114601
C/2018 A4 (PANSTARRS),e,3.1505,97.5835,355.9571,12.18393,0.0231752,0.80381236,38.7405,12/16.0/2022,2000,g 14.0,4.0
# From MPC109147
P/2018 A5 (PANSTARRS),e,23.6077,87.7931,359.4870,5.628702,0.0738060,0.52333093,140.8898,12/16.0/2022,2000,g 15.0,4.0
# From MPEC 2022-ST7
C/2018 A6 (Gibbs),e,77.0588,340.3822,264.3562,15.05647,0.0168702,0.79956833,21.1437,12/16.0/2022,2000,g  9.0,4.0
# From MPEC 2022-O08
C/2018 B1 (Lemmon),e,162.4179,133.1922,68.3994,3979,0.0000039,0.99871038,0.0000,03/27.3974/2018,2000,g  9.0,4.0
# From MPC114601
P/2018 C1 (Lemmon-Read),e,5.1119,270.3359,235.6967,5.652638,0.0733377,0.53203273,128.8219,12/16.0/2022,2000,g 13.5,4.0
# From MPC114601
C/2018 C2 (Lemmon),h,05/31.3267/2018,34.4633,91.2484,134.0181,1.000001,1.960806,2000,13.0,4.0
# From MPEC 2022-M88
C/2018 DO4 (Lemmon),e,160.4427,251.4357,176.2993,25.35020,0.0077220,0.90481817,9.3978,12/16.0/2022,2000,g 11.0,4.0
# From MPC114602
C/2018 E1 (ATLAS),e,72.5043,146.8386,299.2875,53.86000,0.0024935,0.95001030,4.2461,12/16.0/2022,2000,g 10.5,4.0
# From MPEC 2022-N37
C/2018 E2 (Barros),e,97.6191,67.1506,277.4447,2732,0.0000069,0.99856539,0.0000,12/23.6012/2017,2000,g 10.5,4.0
# From MPC114602
C/2018 EN4 (NEOWISE),e,81.9339,136.1285,35.0254,17.92029,0.0129923,0.91846460,21.5385,12/16.0/2022,2000,g 15.0,4.0
# From MPC114602
C/2018 EF9 (Lemmon),e,84.6216,172.5568,72.6326,455.9055,0.0001012,0.99657470,0.0000,05/21.2652/2018,2000,g 18.0,2.0
# From MPEC 2021-R75
C/2018 F1 (Grauer),e,46.0788,177.2760,71.5905,242.3791,0.0002612,0.98763514,0.0000,12/12.0789/2018,2000,g 11.5,4.0
# From MPEC 2021-W31
C/2018 F4 (PANSTARRS),e,78.0840,26.5155,263.2218,16457,0.0000005,0.99979076,0.0000,12/03.2753/2019,2000,g 11.0,6.0
# From MPEC 2021-Y10
C/2018 F4-A,e,78.0842,26.5157,263.2186,13177,0.0000007,0.99973870,0.0000,12/03.2636/2019,2000,g 11.0,6.0
# From MPEC 2021-W31
C/2018 F4-B,e,78.0850,26.5153,263.2036,20855,0.0000003,0.99983491,0.0000,12/03.1998/2019,2000,g 11.0,6.0
# From MPC114602
P/2018 H2 (PANSTARRS),e,7.4195,67.8972,120.0671,4.383368,0.1073970,0.54223838,192.5915,12/16.0/2022,2000,g 16.6,2.0
# From MPC114602
C/2018 K1 (Weiland),e,164.1882,260.1770,325.2428,30.21236,0.0059351,0.93773235,10.1678,12/16.0/2022,2000,g 14.9,4.0
# From MPEC 2021-R75
C/2018 KJ3 (Lemmon),e,136.6763,91.6500,217.6689,953.7318,0.0000335,0.99619664,0.0000,09/09.9847/2019,2000,g 12.2,2.0
# From MPC114602
P/2018 L1 (PANSTARRS),e,10.5801,268.6160,18.0382,3.653640,0.1411288,0.48187097,211.0232,12/16.0/2022,2000,g 15.0,4.0
# From MPEC 2021-P47
C/2018 L2 (ATLAS),e,67.2649,243.0029,56.3252,258.1911,0.0002376,0.99335389,0.0000,12/02.2559/2018,2000,g 10.0,4.0
# From MPC114603
P/2018 L4 (PANSTARRS),e,26.6191,145.1713,140.6201,4.945253,0.0896234,0.65912736,143.3202,12/16.0/2022,2000,g 17.5,4.0
# From MPC119996
P/2018 L5 (Leonard),e,2.2087,219.0445,93.9577,3.628886,0.1425752,0.36428196,240.2913,12/16.0/2022,2000,g 14.5,4.0
# From MPC117070
C/2018 M1 (Catalina),e,37.2872,339.4165,14.2385,21.49526,0.0098899,0.93928404,16.0129,12/16.0/2022,2000,g 15.5,4.0
# From MPEC 2022-M21
C/2018 N1 (NEOWISE),e,159.4138,292.5307,354.7300,507.5726,0.0000862,0.99742026,0.0000,08/02.7922/2018,2000,g 15.5,4.0
# From MPEC 2022-L66
C/2018 N2 (ASASSN),h,11/11.3162/2019,77.5531,25.2048,24.4769,1.000868,3.127423,2000,6.0,4.0
# From MPC114603
C/2018 O1 (ATLAS),e,154.0031,87.7758,162.7047,28.08686,0.0066214,0.94451199,10.3726,12/16.0/2022,2000,g 17.0,4.0
# From MPEC 2022-M21
P/2018 P3 (PANSTARRS),e,8.9144,59.1592,305.9800,3.004318,0.1892715,0.41712182,288.8918,12/16.0/2022,2000,g 14.5,4.0
# From MPC114603
P/2018 P4 (PANSTARRS),e,23.1090,353.0631,8.4201,6.683954,0.0570366,0.45060673,85.4345,12/16.0/2022,2000,g 12.0,4.0
# From MPEC 2021-P47
C/2018 P5 (PANSTARRS),e,7.2471,216.2000,131.9547,12.84308,0.0214141,0.64291808,29.6992,12/16.0/2022,2000,g 11.0,4.0
# From MPC118841
C/2018 R3 (Lemmon),e,69.7166,324.5982,112.7447,1563,0.0000160,0.99917850,0.0000,06/07.7399/2019,2000,g  9.5,4.0
# From MPEC 2022-M21
C/2018 R4 (Fuls),e,11.6697,298.5326,345.3216,346.3061,0.0001529,0.99502420,0.0000,03/02.6577/2018,2000,g 14.0,4.0
# From MPC114603
C/2018 R5 (Lemmon),e,103.7486,171.1165,178.1935,22.88866,0.0090006,0.84133291,12.9225,12/16.0/2022,2000,g 11.5,4.0
# From MPEC 2022-QC6
